TRANSPORTER-16 OBJECT AR
1 68455U 26067AR  26104.14693356  .00003122  00000+0  16217-3 0  9996
2 68455  97.4525  63.5558 0003928 294.3675  65.7148 15.16823117  2224
TRANSPORTER-16 OBJECT AS
1 68456U 26067AS  26106.12589038  .00003042  00000+0  15795-3 0  9999
2 68456  97.4507  65.4963 0003787 285.5948  74.4867 15.16858059  2525
TRANSPORTER-16 OBJECT AT
1 68457U 26067AT  26104.13360433  .00005750  00000+0  28374-3 0  9990
2 68457  97.4494  63.5681 0002017 138.4965 221.6423 15.18283651  2220
TRANSPORTER-16 OBJECT AU
1 68458U 26067AU  26106.12620330  .00004123  00000+0  21287-3 0  9996
2 68458  97.4433  65.4816 0004048 299.9159  60.1672 15.16860821  2522
TRANSPORTER-16 OBJECT AV
1 68459U 26067AV  26106.19284464  .00003334  00000+0  17320-3 0  9994
2 68459  97.4489  65.5558 0004156 286.1304  73.9472 15.16773731  2532
TRANSPORTER-16 OBJECT AW
1 68460U 26067AW  26106.19264805  .00003790  00000+0  19623-3 0  9997
2 68460  97.4454  65.5502 0004155 292.1444  67.9348 15.16811065  2534
TRANSPORTER-16 OBJECT AX
1 68461U 26067AX  26106.25002315  .00085785  00000+0  42256-2 0  9992
2 68461  97.4502  65.6314 0001969 280.0833  66.3759 15.17591241  3834
TRANSPORTER-16 OBJECT AY
1 68462U 26067AY  26106.25002315  .00085544  00000+0  41854-2 0  9999
2 68462  97.4506  65.6449 0001229 193.9844 182.8464 15.17828734  3849
TRANSPORTER-16 OBJECT AZ
1 68463U 26067AZ  26106.25002315  .00081637  00000+0  40608-2 0  9995
2 68463  97.4488  65.6265 0001751 299.3998  44.4349 15.17269986  1296
TRANSPORTER-16 OBJECT BA
1 68464U 26067BA  26104.14270008  .00002939  00000+0  15100-3 0  9996
2 68464  97.4467  63.5503 0001969 332.1363  27.9765 15.17260578  2229
TRANSPORTER-16 OBJECT BB
1 68465U 26067BB  26106.25002315  .00074977  00000+0  37406-2 0  9998
2 68465  97.4473  65.6221 0001644 312.1364  30.4355 15.17199647  1306
TRANSPORTER-16 OBJECT BC
1 68466U 26067BC  26104.25002315  .00083601  00000+0  40992-2 0  9995
2 68466  97.4502  63.6764 0000984 192.2845  65.2682 15.17762560  2183
TRANSPORTER-16 OBJECT BD
1 68467U 26067BD  26106.12515535  .00009063  00000+0  46048-3 0  9996
2 68467  97.4372  65.4725 0004299 304.4971  55.5856 15.17092606  2526
TRANSPORTER-16 OBJECT BE
1 68468U 26067BE  26104.14890293  .00005410  00000+0  27964-3 0  9992
2 68468  97.4508  63.5497 0004762 285.6118  74.4589 15.16676952  2222
TRANSPORTER-16 OBJECT BF
1 68469U 26067BF  26106.25002315  .00082980  00000+0  41271-2 0  9990
2 68469  97.4491  65.6280 0001565 296.5292  49.3734 15.17267152  2748
TRANSPORTER-16 OBJECT BG
1 68470U 26067BG  26104.14926508  .00005191  00000+0  26875-3 0  9990
2 68470  97.4426  63.5364 0005143 301.0012  59.0715 15.16637828  2226
