[{"OBJECT_NAME":"TRANSPORTER-16 OBJECT AR","OBJECT_ID":"2026-067AR","EPOCH":"2026-04-14T03:31:35.059584","MEAN_MOTION":15.16823117,"ECCENTRICITY":0.00039287,"INCLINATION":97.4525,"RA_OF_ASC_NODE":63.5558,"ARG_OF_PERICENTER":294.3675,"MEAN_ANOMALY":65.7148,"EPHEMERIS_TYPE":0,"CLASSIFICATION_TYPE":"U","NORAD_CAT_ID":68455,"ELEMENT_SET_NO":999,"REV_AT_EPOCH":222,"BSTAR":0.00016217041,"MEAN_MOTION_DOT":3.122e-5,"MEAN_MOTION_DDOT":0},{"OBJECT_NAME":"TRANSPORTER-16 OBJECT AS","OBJECT_ID":"2026-067AS","EPOCH":"2026-04-16T03:01:16.928832","MEAN_MOTION":15.16858059,"ECCENTRICITY":0.00037877,"INCLINATION":97.4507,"RA_OF_ASC_NODE":65.4963,"ARG_OF_PERICENTER":285.5948,"MEAN_ANOMALY":74.4867,"EPHEMERIS_TYPE":0,"CLASSIFICATION_TYPE":"U","NORAD_CAT_ID":68456,"ELEMENT_SET_NO":999,"REV_AT_EPOCH":252,"BSTAR":0.00015794677,"MEAN_MOTION_DOT":3.042e-5,"MEAN_MOTION_DDOT":0},{"OBJECT_NAME":"TRANSPORTER-16 OBJECT AT","OBJECT_ID":"2026-067AT","EPOCH":"2026-04-14T03:12:23.414112","MEAN_MOTION":15.18283651,"ECCENTRICITY":0.0002017,"INCLINATION":97.4494,"RA_OF_ASC_NODE":63.5681,"ARG_OF_PERICENTER":138.4965,"MEAN_ANOMALY":221.6423,"EPHEMERIS_TYPE":0,"CLASSIFICATION_TYPE":"U","NORAD_CAT_ID":68457,"ELEMENT_SET_NO":999,"REV_AT_EPOCH":222,"BSTAR":0.00028374,"MEAN_MOTION_DOT":5.75e-5,"MEAN_MOTION_DDOT":0},{"OBJECT_NAME":"TRANSPORTER-16 OBJECT AU","OBJECT_ID":"2026-067AU","EPOCH":"2026-04-16T03:01:43.965120","MEAN_MOTION":15.16860821,"ECCENTRICITY":0.00040484,"INCLINATION":97.4433,"RA_OF_ASC_NODE":65.4816,"ARG_OF_PERICENTER":299.9159,"MEAN_ANOMALY":60.1672,"EPHEMERIS_TYPE":0,"CLASSIFICATION_TYPE":"U","NORAD_CAT_ID":68458,"ELEMENT_SET_NO":999,"REV_AT_EPOCH":252,"BSTAR":0.00021286824,"MEAN_MOTION_DOT":4.123e-5,"MEAN_MOTION_DDOT":0},{"OBJECT_NAME":"TRANSPORTER-16 OBJECT AV","OBJECT_ID":"2026-067AV","EPOCH":"2026-04-16T04:37:41.776896","MEAN_MOTION":15.16773731,"ECCENTRICITY":0.00041561,"INCLINATION":97.4489,"RA_OF_ASC_NODE":65.5558,"ARG_OF_PERICENTER":286.1304,"MEAN_ANOMALY":73.9472,"EPHEMERIS_TYPE":0,"CLASSIFICATION_TYPE":"U","NORAD_CAT_ID":68459,"ELEMENT_SET_NO":999,"REV_AT_EPOCH":253,"BSTAR":0.00017320259,"MEAN_MOTION_DOT":3.334e-5,"MEAN_MOTION_DDOT":0},{"OBJECT_NAME":"TRANSPORTER-16 OBJECT AW","OBJECT_ID":"2026-067AW","EPOCH":"2026-04-16T04:37:24.791520","MEAN_MOTION":15.16811065,"ECCENTRICITY":0.00041557,"INCLINATION":97.4454,"RA_OF_ASC_NODE":65.5502,"ARG_OF_PERICENTER":292.1444,"MEAN_ANOMALY":67.9348,"EPHEMERIS_TYPE":0,"CLASSIFICATION_TYPE":"U","NORAD_CAT_ID":68460,"ELEMENT_SET_NO":999,"REV_AT_EPOCH":253,"BSTAR":0.00019623097,"MEAN_MOTION_DOT":3.79e-5,"MEAN_MOTION_DDOT":0},{"OBJECT_NAME":"TRANSPORTER-16 OBJECT AX","OBJECT_ID":"2026-067AX","EPOCH":"2026-04-16T06:00:02.000160","MEAN_MOTION":15.17591241,"ECCENTRICITY":0.00019691,"INCLINATION":97.4502,"RA_OF_ASC_NODE":65.6314,"ARG_OF_PERICENTER":280.0833,"MEAN_ANOMALY":66.3759,"EPHEMERIS_TYPE":0,"CLASSIFICATION_TYPE":"U","NORAD_CAT_ID":68461,"ELEMENT_SET_NO":999,"REV_AT_EPOCH":383,"BSTAR":0.0042255615,"MEAN_MOTION_DOT":0.00085785,"MEAN_MOTION_DDOT":0},{"OBJECT_NAME":"TRANSPORTER-16 OBJECT AY","OBJECT_ID":"2026-067AY","EPOCH":"2026-04-16T06:00:02.000160","MEAN_MOTION":15.17828734,"ECCENTRICITY":0.00012296,"INCLINATION":97.4506,"RA_OF_ASC_NODE":65.6449,"ARG_OF_PERICENTER":193.9844,"MEAN_ANOMALY":182.8464,"EPHEMERIS_TYPE":0,"CLASSIFICATION_TYPE":"U","NORAD_CAT_ID":68462,"ELEMENT_SET_NO":999,"REV_AT_EPOCH":384,"BSTAR":0.0041854066,"MEAN_MOTION_DOT":0.00085544,"MEAN_MOTION_DDOT":0},{"OBJECT_NAME":"TRANSPORTER-16 OBJECT AZ","OBJECT_ID":"2026-067AZ","EPOCH":"2026-04-16T06:00:02.000160","MEAN_MOTION":15.17269986,"ECCENTRICITY":0.00017515,"INCLINATION":97.4488,"RA_OF_ASC_NODE":65.6265,"ARG_OF_PERICENTER":299.3998,"MEAN_ANOMALY":44.4349,"EPHEMERIS_TYPE":0,"CLASSIFICATION_TYPE":"U","NORAD_CAT_ID":68463,"ELEMENT_SET_NO":999,"REV_AT_EPOCH":129,"BSTAR":0.0040607539,"MEAN_MOTION_DOT":0.00081637,"MEAN_MOTION_DDOT":0},{"OBJECT_NAME":"TRANSPORTER-16 OBJECT BA","OBJECT_ID":"2026-067BA","EPOCH":"2026-04-14T03:25:29.286912","MEAN_MOTION":15.17260578,"ECCENTRICITY":0.00019696,"INCLINATION":97.4467,"RA_OF_ASC_NODE":63.5503,"ARG_OF_PERICENTER":332.1363,"MEAN_ANOMALY":27.9765,"EPHEMERIS_TYPE":0,"CLASSIFICATION_TYPE":"U","NORAD_CAT_ID":68464,"ELEMENT_SET_NO":999,"REV_AT_EPOCH":222,"BSTAR":0.00015100358,"MEAN_MOTION_DOT":2.939e-5,"MEAN_MOTION_DDOT":0},{"OBJECT_NAME":"TRANSPORTER-16 OBJECT BB","OBJECT_ID":"2026-067BB","EPOCH":"2026-04-16T06:00:02.000160","MEAN_MOTION":15.17199647,"ECCENTRICITY":0.00016446,"INCLINATION":97.4473,"RA_OF_ASC_NODE":65.6221,"ARG_OF_PERICENTER":312.1364,"MEAN_ANOMALY":30.4355,"EPHEMERIS_TYPE":0,"CLASSIFICATION_TYPE":"U","NORAD_CAT_ID":68465,"ELEMENT_SET_NO":999,"REV_AT_EPOCH":130,"BSTAR":0.0037406333,"MEAN_MOTION_DOT":0.00074977,"MEAN_MOTION_DDOT":0},{"OBJECT_NAME":"TRANSPORTER-16 OBJECT BC","OBJECT_ID":"2026-067BC","EPOCH":"2026-04-14T06:00:02.000160","MEAN_MOTION":15.1776256,"ECCENTRICITY":9.846e-5,"INCLINATION":97.4502,"RA_OF_ASC_NODE":63.6764,"ARG_OF_PERICENTER":192.2845,"MEAN_ANOMALY":65.2682,"EPHEMERIS_TYPE":0,"CLASSIFICATION_TYPE":"U","NORAD_CAT_ID":68466,"ELEMENT_SET_NO":999,"REV_AT_EPOCH":218,"BSTAR":0.0040992311,"MEAN_MOTION_DOT":0.00083601,"MEAN_MOTION_DDOT":0},{"OBJECT_NAME":"TRANSPORTER-16 OBJECT BD","OBJECT_ID":"2026-067BD","EPOCH":"2026-04-16T03:00:13.422240","MEAN_MOTION":15.17092606,"ECCENTRICITY":0.00042999,"INCLINATION":97.4372,"RA_OF_ASC_NODE":65.4725,"ARG_OF_PERICENTER":304.4971,"MEAN_ANOMALY":55.5856,"EPHEMERIS_TYPE":0,"CLASSIFICATION_TYPE":"U","NORAD_CAT_ID":68467,"ELEMENT_SET_NO":999,"REV_AT_EPOCH":252,"BSTAR":0.00046047946,"MEAN_MOTION_DOT":9.063e-5,"MEAN_MOTION_DDOT":0},{"OBJECT_NAME":"TRANSPORTER-16 OBJECT BE","OBJECT_ID":"2026-067BE","EPOCH":"2026-04-14T03:34:25.213152","MEAN_MOTION":15.16676952,"ECCENTRICITY":0.0004762,"INCLINATION":97.4508,"RA_OF_ASC_NODE":63.5497,"ARG_OF_PERICENTER":285.6118,"MEAN_ANOMALY":74.4589,"EPHEMERIS_TYPE":0,"CLASSIFICATION_TYPE":"U","NORAD_CAT_ID":68468,"ELEMENT_SET_NO":999,"REV_AT_EPOCH":222,"BSTAR":0.00027964,"MEAN_MOTION_DOT":5.41e-5,"MEAN_MOTION_DDOT":0},{"OBJECT_NAME":"TRANSPORTER-16 OBJECT BF","OBJECT_ID":"2026-067BF","EPOCH":"2026-04-16T06:00:02.000160","MEAN_MOTION":15.17267152,"ECCENTRICITY":0.00015659,"INCLINATION":97.4491,"RA_OF_ASC_NODE":65.628,"ARG_OF_PERICENTER":296.5292,"MEAN_ANOMALY":49.3734,"EPHEMERIS_TYPE":0,"CLASSIFICATION_TYPE":"U","NORAD_CAT_ID":68469,"ELEMENT_SET_NO":999,"REV_AT_EPOCH":274,"BSTAR":0.0041270952,"MEAN_MOTION_DOT":0.0008298,"MEAN_MOTION_DDOT":0},{"OBJECT_NAME":"TRANSPORTER-16 OBJECT BG","OBJECT_ID":"2026-067BG","EPOCH":"2026-04-14T03:34:56.502912","MEAN_MOTION":15.16637828,"ECCENTRICITY":0.00051439,"INCLINATION":97.4426,"RA_OF_ASC_NODE":63.5364,"ARG_OF_PERICENTER":301.0012,"MEAN_ANOMALY":59.0715,"EPHEMERIS_TYPE":0,"CLASSIFICATION_TYPE":"U","NORAD_CAT_ID":68470,"ELEMENT_SET_NO":999,"REV_AT_EPOCH":222,"BSTAR":0.00026875494,"MEAN_MOTION_DOT":5.191e-5,"MEAN_MOTION_DDOT":0}]
